     2.100          NAVIGATION                              RINEX VERSION / TYPE
fic2rin                                 09/15/2013 00:24:02 PGM / RUN BY / DATE
                                                            END OF HEADER
 6 13  9 14  8  0  0.0  .529875978827D-04  .189857018995D-10  .000000000000D+00
     .260000000000D+02 -.930937500000D+02  .473376860903D-08 -.110773666547D+01
    -.485405325890D-05  .810164969880D-02  .913999974728D-05  .515368535423D+04
     .547200000000D+06 -.109896063805D-06  .182241689493D+01 -.165775418282D-06
     .941933041372D+00  .194218750000D+03 -.230201592477D+00 -.822784272268D-08
    -.714315468392D-11  .100000000000D+01  .175700000000D+04  .000000000000D+00
     .240000000000D+01  .000000000000D+00 -.512227416039D-08  .260000000000D+02
     .540006000000D+06  .400000000000D+01
 7 13  9 14  8  0  0.0  .258455518633D-03  .420641299570D-11  .000000000000D+00
     .105000000000D+03  .982812500000D+02  .437339645523D-08  .180927238435D+01
     .518187880516D-05  .691558152903D-02  .699050724506D-05  .515367434883D+04
     .547200000000D+06 -.298023223877D-07 -.185179178233D+00  .135973095894D-06
     .975205629686D+00  .254062500000D+03 -.288378377667D+01 -.818748389871D-08
     .147506144223D-09  .100000000000D+01  .175700000000D+04  .000000000000D+00
     .240000000000D+01  .000000000000D+00 -.107102096081D-07  .105000000000D+03
     .540006000000D+06  .400000000000D+01
 8 13  9 14  8  0  0.0  .844942405820D-05  .227373675443D-12  .000000000000D+00
     .170000000000D+02  .912187500000D+02  .385587489838D-08  .123897262816D+01
     .497885048389D-05  .134190248791D-01  .676326453686D-05  .515369841194D+04
     .547200000000D+06  .242143869400D-07 -.915343804544D-01  .119209289551D-06
     .998128609480D+00  .267343750000D+03 -.283858428204D+01 -.802354849872D-08
     .303584074067D-10  .100000000000D+01  .175700000000D+04  .000000000000D+00
     .240000000000D+01  .000000000000D+00 -.372529029846D-08  .170000000000D+02
     .540006000000D+06  .400000000000D+01
 9 13  9 14  8  0  0.0  .268346630037D-03  .272848410532D-11  .000000000000D+00
     .260000000000D+02  .103000000000D+03  .405374028313D-08  .298450109140D+01
     .542029738426D-05  .168940426083D-01  .721029937267D-05  .515372761536D+04
     .547200000000D+06  .376254320145D-06 -.207591371402D+00 -.204890966415D-07
     .983800207570D+00  .247156250000D+03  .172528651197D+01 -.779353891789D-08
     .159292349451D-09  .100000000000D+01  .175700000000D+04  .000000000000D+00
     .240000000000D+01  .000000000000D+00 -.558793544769D-08  .260000000000D+02
     .540006000000D+06  .400000000000D+01
11 13  9 14  8  0  0.0 -.419571995735D-03 -.341060513165D-11  .000000000000D+00
     .270000000000D+02 -.198437500000D+02  .597917762818D-08  .203589740837D+01
    -.119395554066D-05  .145414874423D-01  .102762132883D-04  .515369173622D+04
     .547200000000D+06  .558793544769D-07  .263250910819D+01 -.294297933578D-06
     .889614583607D+00  .141531250000D+03  .121109189214D+01 -.861714465295D-08
     .423946230491D-09  .100000000000D+01  .175700000000D+04  .000000000000D+00
     .240000000000D+01  .000000000000D+00 -.116415321827D-07  .270000000000D+02
     .540006000000D+06  .400000000000D+01
12 13  9 14  8  0  0.0  .156264752150D-03  .216004991671D-11  .000000000000D+00
     .530000000000D+02 -.329375000000D+02  .421731852539D-08  .149412562266D+01
    -.175274908543D-05  .451586069539D-02  .350363552570D-05  .515376623726D+04
     .547200000000D+06  .130385160446D-07  .874320780113D+00  .670552253723D-07
     .985145575793D+00  .324031250000D+03  .336172967251D+00 -.816069706865D-08
    -.154649298907D-09  .100000000000D+01  .175700000000D+04  .000000000000D+00
     .240000000000D+01  .000000000000D+00 -.116415321827D-07  .530000000000D+02
     .540006000000D+06  .400000000000D+01
13 13  9 14  8  0  0.0  .801207497716D-04 -.375166564481D-11  .000000000000D+00
     .740000000000D+02  .493750000000D+02  .405481175633D-08 -.214784731240D+01
     .268407166004D-05  .502394558862D-02  .111106783152D-04  .515370716095D+04
     .547200000000D+06 -.540167093277D-07 -.115132950300D+01  .726431608200D-07
     .980078732693D+00  .178093750000D+03  .220035818778D+01 -.771103548129D-08
    -.260010830495D-09  .100000000000D+01  .175700000000D+04  .000000000000D+00
     .240000000000D+01  .000000000000D+00 -.107102096081D-07  .740000000000D+02
     .540006000000D+06  .400000000000D+01
14 13  9 14  8  0  0.0  .215805601329D-03 -.909494701773D-12  .000000000000D+00
     .640000000000D+02  .382187500000D+02  .422053294500D-08 -.191670290434D+01
     .203773379326D-05  .740969635081D-02  .970065593719D-05  .515355603409D+04
     .547200000000D+06  .134110450745D-06 -.118136633889D+01  .279396772385D-07
     .972707385464D+00  .197531250000D+03 -.200659205640D+01 -.774675125471D-08
    -.184293390845D-09  .100000000000D+01  .175700000000D+04  .000000000000D+00
     .240000000000D+01  .000000000000D+00 -.884756445885D-08  .640000000000D+02
     .540006000000D+06  .400000000000D+01
15 13  9 14  8  0  0.0 -.137015711516D-03 -.181898940355D-11  .000000000000D+00
     .125000000000D+03  .142500000000D+02  .505485341208D-08 -.239127898593D+01
     .642612576485D-06  .553690386005D-02  .101160258055D-04  .515355846405D+04
     .547200000000D+06 -.745058059692D-07 -.128493487657D+01 -.651925802231D-07
     .939278658441D+00  .176718750000D+03  .153572198224D+00 -.818819821418D-08
    -.238224208709D-09  .100000000000D+01  .175700000000D+04  .000000000000D+00
     .340000000000D+01  .000000000000D+00 -.977888703346D-08  .125000000000D+03
     .540006000000D+06  .400000000000D+01
16 13  9 14  8  0  0.0 -.246742740273D-03  .795807864051D-12  .000000000000D+00
     .180000000000D+02 -.430937500000D+02  .417695970142D-08 -.685276737624D+00
    -.225752592087D-05  .705260166433D-02  .401586294174D-05  .515371012115D+04
     .547200000000D+06  .726431608200D-07  .892756868736D+00 -.335276126862D-07
     .985800462775D+00  .315281250000D+03  .139362752035D+00 -.819855578847D-08
    -.151077721565D-09  .100000000000D+01  .175700000000D+04  .000000000000D+00
     .240000000000D+01  .000000000000D+00 -.977888703346D-08  .180000000000D+02
     .540006000000D+06  .400000000000D+01
17 13  9 14  8  0  0.0 -.211647711694D-04 -.375166564481D-11  .000000000000D+00
     .740000000000D+02 -.101468750000D+03  .416624496940D-08 -.164107032069D+01
    -.523403286934D-05  .851264258381D-02  .974535942078D-05  .515368633080D+04
     .547200000000D+06  .257045030594D-06  .192849178872D+01 -.670552253723D-07
     .966150857273D+00  .196093750000D+03 -.219251811283D+01 -.781103964687D-08
    -.625026034843D-10  .100000000000D+01  .175700000000D+04  .000000000000D+00
     .240000000000D+01  .000000000000D+00 -.102445483208D-07  .740000000000D+02
     .540006000000D+06  .400000000000D+01
18 13  9 14  8  0  0.0  .274018850178D-03  .204636307899D-11  .000000000000D+00
     .700000000000D+01  .281250000000D+01  .572202405956D-08 -.132493781115D+00
     .201165676117D-06  .145887844265D-01  .659748911858D-05  .515362780952D+04
     .547200000000D+06 -.104308128357D-06 -.230395213196D+01  .188127160072D-06
     .926841250773D+00  .238468750000D+03 -.207858028160D+01 -.889822778976D-08
    -.457161899771D-10  .100000000000D+01  .175700000000D+04  .000000000000D+00
     .240000000000D+01  .000000000000D+00 -.107102096081D-07  .700000000000D+01
     .540006000000D+06  .400000000000D+01
19 13  9 14  8  0  0.0 -.404036138207D-03 -.284217094304D-11  .000000000000D+00
     .560000000000D+02 -.842187500000D+02  .416374486526D-08 -.247323284170D+01
    -.439025461674D-05  .953237235080D-02  .107605010271D-04  .515374876213D+04
     .547200000000D+06 -.409781932831D-07  .198012970869D+01 -.894069671631D-07
     .963374461122D+00  .172375000000D+03  .379373359452D+00 -.784854120896D-08
     .960754304987D-10  .100000000000D+01  .175700000000D+04  .000000000000D+00
     .240000000000D+01  .000000000000D+00 -.144354999065D-07  .560000000000D+02
     .540006000000D+06  .400000000000D+01
20 13  9 14  8  0  0.0  .122332479805D-03  .261479726760D-11  .000000000000D+00
     .280000000000D+02  .943750000000D+01  .564594946217D-08  .354571537876D+00
     .279396772385D-06  .553206470795D-02  .637583434582D-05  .515367182922D+04
     .547200000000D+06 -.633299350739D-07 -.235727866610D+01  .298023223877D-07
     .927711571459D+00  .239406250000D+03  .128543462987D+01 -.869643366994D-08
    -.746459664470D-10  .100000000000D+01  .175700000000D+04  .000000000000D+00
     .240000000000D+01  .000000000000D+00 -.791624188423D-08  .280000000000D+02
     .540006000000D+06  .400000000000D+01
22 13  9 14  8  0  0.0  .184768810868D-03  .181898940355D-11  .000000000000D+00
     .600000000000D+01  .315625000000D+01  .569309428309D-08 -.714296675747D+00
     .283122062683D-06  .678501767106D-02  .637210905552D-05  .515364315605D+04
     .547200000000D+06 -.745058059692D-07 -.230156267179D+01  .132247805595D-06
     .924595961179D+00  .238656250000D+03 -.203337726866D+01 -.873429238977D-08
    -.653598653579D-10  .100000000000D+01  .175700000000D+04  .000000000000D+00
     .240000000000D+01  .000000000000D+00 -.172294676304D-07  .600000000000D+01
     .540006000000D+06  .400000000000D+01
23 13  9 14  8  0  0.0  .483398325741D-04 -.341060513165D-11  .000000000000D+00
     .260000000000D+02  .432812500000D+02  .457661920599D-08 -.291100513601D+01
     .216998159885D-05  .888024212327D-02  .106971710920D-04  .515366571045D+04
     .547200000000D+06 -.109896063805D-06 -.124210204985D+01 -.124797224998D-06
     .954269487212D+00  .173687500000D+03 -.282434781137D+01 -.791461538979D-08
    -.305369862738D-09  .100000000000D+01  .175700000000D+04  .000000000000D+00
     .240000000000D+01  .000000000000D+00 -.200234353542D-07  .260000000000D+02
     .540006000000D+06  .400000000000D+01
